ONEWEB-0512             
1 54130U 22138T   24213.69705775  .00000027  00000+0  34585-4 0  9994
2 54130  87.9120  81.3737 0001848  64.0874 296.0449 13.19727366 86396
ONEWEB-0513             
1 54131U 22138U   24214.19855283  .00000148  00000+0  33709-3 0  9991
2 54131  87.9117  81.2669 0002060  64.3260 295.8085 13.19724181 87212
ONEWEB-0514             
1 54132U 22138V   24214.16775763  .00000076  00000+0  15679-3 0  9999
2 54132  87.9112  81.2671 0001860  81.4409 278.6934 13.19727352 87342
ONEWEB-0515             
1 54133U 22138W   24214.05020438  .00000072  00000+0  14535-3 0  9996
2 54133  87.9181  50.7082 0001691 121.2637 238.8662 13.20771843 89731
ONEWEB-0516             
1 54134U 22138X   24214.36994119  .00000019  00000+0  15402-4 0  9993
2 54134  87.9121  81.2407 0001724  78.6724 281.4602 13.19724827 87379
ONEWEB-0517             
1 54135U 22138Y   24214.12195429  .00000100  00000+0  21830-3 0  9997
2 54135  87.9114  81.2722 0002267  78.9697 281.1691 13.19726464 87348
ONEWEB-0518             
1 54136U 22138Z   24213.91345231  .00000074  00000+0  15334-3 0  9994
2 54136  87.9121  81.3298 0001893  78.6550 281.4795 13.19726831 87318
ONEWEB-0519             
1 54137U 22138AA  24214.39362931 -.00000124  00000+0 -34163-3 0  9993
2 54137  87.9113  81.2132 0002011  69.4996 290.6352 13.19724337 87388
